[{"OBJECT_NAME":"STARLINK-3125","OBJECT_ID":"2021-104AV","EPOCH":"2026-03-09T16:18:48.159648","MEAN_MOTION":15.0884301,"ECCENTRICITY":0.00012103,"INCLINATION":53.2167,"RA_OF_ASC_NODE":219.164,"ARG_OF_PERICENTER":87.4509,"MEAN_ANOMALY":272.6621,"EPHEMERIS_TYPE":0,"CLASSIFICATION_TYPE":"U","NORAD_CAT_ID":49451,"ELEMENT_SET_NO":999,"REV_AT_EPOCH":23877,"BSTAR":1.6923164e-5,"MEAN_MOTION_DOT":-1.8e-7,"MEAN_MOTION_DDOT":0},{"OBJECT_NAME":"KSLV-II R\/B","OBJECT_ID":"2025-274P","EPOCH":"2026-03-09T17:44:44.185056","MEAN_MOTION":14.98166503,"ECCENTRICITY":0.00605567,"INCLINATION":97.7452,"RA_OF_ASC_NODE":0.3618,"ARG_OF_PERICENTER":19.961,"MEAN_ANOMALY":340.3962,"EPHEMERIS_TYPE":0,"CLASSIFICATION_TYPE":"U","NORAD_CAT_ID":66663,"ELEMENT_SET_NO":999,"REV_AT_EPOCH":1543,"BSTAR":0.00059831331,"MEAN_MOTION_DOT":7.309e-5,"MEAN_MOTION_DDOT":0}]
